0 COSMOS 1447
1 13916U 83021A   13281.83781541  .00000031  00000-0  16025-4 0  2328
2 13916 082.9486 191.7889 0038385 160.6547 261.2716 13.74939805532417
0 COSMOS 1447
1 13916U 83021A   13282.85757588  .00000021  00000-0  54266-5 0  2335
2 13916 082.9486 191.0343 0038453 157.8318 268.8419 13.74939875532550
0 COSMOS 1447
1 13916U 83021A   13284.18712830  .00000043  00000-0  28685-4 0  2344
2 13916 082.9486 190.0504 0038524 154.2078 009.7538 13.74939821532736
0 COSMOS 1447
1 13916U 83021A   13286.36499488  .00000066  00000-0  53150-4 0  2369
2 13916 082.9485 188.4388 0038638 148.2775 349.5769 13.74939802533033
0 COSMOS 1447
1 13916U 83021A   13287.80498073  .00000081  00000-0  68540-4 0  2375
2 13916 082.9483 187.3733 0038703 144.3796 277.0758 13.74939870533236
0 COSMOS 1447
1 13916U 83021A   13288.82473348  .00000085  00000-0  72339-4 0  2382
2 13916 082.9481 186.6188 0038739 141.6236 284.5422 13.74940018533370
0 COSMOS 1447
1 13916U 83021A   13289.84412954  .00000081  00000-0  68563-4 0  2392
2 13916 082.9479 185.8645 0038781 138.8773 290.2350 13.74940170533516
0 COSMOS 1447
1 13916U 83021A   13291.17111045  .00000079  00000-0  66497-4 0  2401
2 13916 082.9476 184.8827 0038832 135.2876 018.3921 13.74940418533693
0 COSMOS 1447
1 13916U 83021A   13292.19208141  .00000071  00000-0  58041-4 0  2417
2 13916 082.9475 184.1272 0038877 132.5090 031.9089 13.74940630533834
0 COSMOS 1447
1 13916U 83021A   13293.19985404  .00000064  00000-0  50533-4 0  2423
2 13916 082.9474 183.3814 0038899 129.7925 340.0724 13.74940819533979
0 COSMOS 1447
1 13916U 83021A   13294.29734264  .00000050  00000-0  36012-4 0  2433
2 13916 082.9474 182.5692 0038954 126.7884 012.3486 13.74941004534126
0 COSMOS 1447
1 13916U 83021A   13295.31599095  .00000054  00000-0  40531-4 0  2444
2 13916 082.9473 181.8154 0038977 124.0470 014.3408 13.74941170534262
